KUIPER-00035            
1 63748U 25088AA  25224.58335648 -.00029767  00000+0 -33430-2 0  9995
2 63748  51.8951 318.8438 0009008  90.2583 298.0973 14.86186057 16548
KUIPER-00037            
1 63749U 25088AB  25224.58335648 -.00018896  00000+0 -20904-2 0  9999
2 63749  51.8967 317.8946 0008238  49.7803 310.5753 14.86551598 17348
KUIPER-00038            
1 63750U 25088AC  25224.41668981 -.00026434  00000+0 -10761-2 0  9999
2 63750  51.8791 308.9404 0005496 112.7972 209.3728 15.23685720 16440
KUIPER-00039            
1 64500U 25134A   25223.93630894  .00029597  00000+0  85390-3 0  9995
2 64500  51.8675  92.5794 0007529 290.4402  69.5775 15.35427381  8386
KUIPER-00040            
1 64501U 25134B   25224.58335648 -.00946311  00000+0 -56725-1 0  9999
2 64501  51.8793  92.1540 0012898 297.2747 135.3447 15.13258076  8449
KUIPER-00041            
1 64502U 25134C   25224.58335648  .00032587  00000+0  20912-2 0  9999
2 64502  51.8795  92.6120 0010411 299.1305 225.7666 15.08152377  8438
KUIPER-00042            
1 64503U 25134D   25224.41668981  .00013699  00000+0  72727-3 0  9996
2 64503  51.8778  91.7986 0011189 301.1585 160.9306 15.15544227  8435
KUIPER-00043            
1 64504U 25134E   25224.41668981 -.00470179  00000+0 -15592-1 0  9994
2 64504  51.8696  90.3613 0008495 293.4409 163.3310 15.32650336  8835
