<?xml version="1.0" encoding="UTF-8"?>
<ndm xmlns:xsi="http://www.w3.org/2001/XMLSchema-instance" xsi:noNamespaceSchemaLocation="https://sanaregistry.org/r/ndmxml_unqualified/ndmxml-2.0.0-master-2.0.xsd">
<omm id="CCSDS_OMM_VERS" version="2.0">
<header><CREATION_DATE/><ORIGINATOR/></header><body><segment><metadata><OBJECT_NAME>KUIPER-00035</OBJECT_NAME><OBJECT_ID>2025-088AA</OBJECT_ID><CENTER_NAME>EARTH</CENTER_NAME><REF_FRAME>TEME</REF_FRAME><TIME_SYSTEM>UTC</TIME_SYSTEM><MEAN_ELEMENT_THEORY>SGP4</MEAN_ELEMENT_THEORY></metadata><data><meanElements><EPOCH>2025-08-12T14:00:01.999872</EPOCH><MEAN_MOTION>14.86186057</MEAN_MOTION><ECCENTRICITY>.0009008</ECCENTRICITY><INCLINATION>51.8951</INCLINATION><RA_OF_ASC_NODE>318.8438</RA_OF_ASC_NODE><ARG_OF_PERICENTER>90.2583</ARG_OF_PERICENTER><MEAN_ANOMALY>298.0973</MEAN_ANOMALY></meanElements><tleParameters><EPHEMERIS_TYPE>0</EPHEMERIS_TYPE><CLASSIFICATION_TYPE>U</CLASSIFICATION_TYPE><NORAD_CAT_ID>63748</NORAD_CAT_ID><ELEMENT_SET_NO>999</ELEMENT_SET_NO><REV_AT_EPOCH>1654</REV_AT_EPOCH><BSTAR>-.3343E-2</BSTAR><MEAN_MOTION_DOT>-.29767E-3</MEAN_MOTION_DOT><MEAN_MOTION_DDOT>0</MEAN_MOTION_DDOT></tleParameters></data></segment></body></omm>
<omm id="CCSDS_OMM_VERS" version="2.0">
<header><CREATION_DATE/><ORIGINATOR/></header><body><segment><metadata><OBJECT_NAME>KUIPER-00037</OBJECT_NAME><OBJECT_ID>2025-088AB</OBJECT_ID><CENTER_NAME>EARTH</CENTER_NAME><REF_FRAME>TEME</REF_FRAME><TIME_SYSTEM>UTC</TIME_SYSTEM><MEAN_ELEMENT_THEORY>SGP4</MEAN_ELEMENT_THEORY></metadata><data><meanElements><EPOCH>2025-08-12T14:00:01.999872</EPOCH><MEAN_MOTION>14.86551598</MEAN_MOTION><ECCENTRICITY>.0008238</ECCENTRICITY><INCLINATION>51.8967</INCLINATION><RA_OF_ASC_NODE>317.8946</RA_OF_ASC_NODE><ARG_OF_PERICENTER>49.7803</ARG_OF_PERICENTER><MEAN_ANOMALY>310.5753</MEAN_ANOMALY></meanElements><tleParameters><EPHEMERIS_TYPE>0</EPHEMERIS_TYPE><CLASSIFICATION_TYPE>U</CLASSIFICATION_TYPE><NORAD_CAT_ID>63749</NORAD_CAT_ID><ELEMENT_SET_NO>999</ELEMENT_SET_NO><REV_AT_EPOCH>1734</REV_AT_EPOCH><BSTAR>-.20904E-2</BSTAR><MEAN_MOTION_DOT>-.18896E-3</MEAN_MOTION_DOT><MEAN_MOTION_DDOT>0</MEAN_MOTION_DDOT></tleParameters></data></segment></body></omm>
<omm id="CCSDS_OMM_VERS" version="2.0">
<header><CREATION_DATE/><ORIGINATOR/></header><body><segment><metadata><OBJECT_NAME>KUIPER-00038</OBJECT_NAME><OBJECT_ID>2025-088AC</OBJECT_ID><CENTER_NAME>EARTH</CENTER_NAME><REF_FRAME>TEME</REF_FRAME><TIME_SYSTEM>UTC</TIME_SYSTEM><MEAN_ELEMENT_THEORY>SGP4</MEAN_ELEMENT_THEORY></metadata><data><meanElements><EPOCH>2025-08-12T10:00:01.999584</EPOCH><MEAN_MOTION>15.23685720</MEAN_MOTION><ECCENTRICITY>.0005496</ECCENTRICITY><INCLINATION>51.8791</INCLINATION><RA_OF_ASC_NODE>308.9404</RA_OF_ASC_NODE><ARG_OF_PERICENTER>112.7972</ARG_OF_PERICENTER><MEAN_ANOMALY>209.3728</MEAN_ANOMALY></meanElements><tleParameters><EPHEMERIS_TYPE>0</EPHEMERIS_TYPE><CLASSIFICATION_TYPE>U</CLASSIFICATION_TYPE><NORAD_CAT_ID>63750</NORAD_CAT_ID><ELEMENT_SET_NO>999</ELEMENT_SET_NO><REV_AT_EPOCH>1644</REV_AT_EPOCH><BSTAR>-.10761E-2</BSTAR><MEAN_MOTION_DOT>-.26434E-3</MEAN_MOTION_DOT><MEAN_MOTION_DDOT>0</MEAN_MOTION_DDOT></tleParameters></data></segment></body></omm>
<omm id="CCSDS_OMM_VERS" version="2.0">
<header><CREATION_DATE/><ORIGINATOR/></header><body><segment><metadata><OBJECT_NAME>KUIPER-00039</OBJECT_NAME><OBJECT_ID>2025-134A</OBJECT_ID><CENTER_NAME>EARTH</CENTER_NAME><REF_FRAME>TEME</REF_FRAME><TIME_SYSTEM>UTC</TIME_SYSTEM><MEAN_ELEMENT_THEORY>SGP4</MEAN_ELEMENT_THEORY></metadata><data><meanElements><EPOCH>2025-08-11T22:28:17.092416</EPOCH><MEAN_MOTION>15.35427381</MEAN_MOTION><ECCENTRICITY>.0007529</ECCENTRICITY><INCLINATION>51.8675</INCLINATION><RA_OF_ASC_NODE>92.5794</RA_OF_ASC_NODE><ARG_OF_PERICENTER>290.4402</ARG_OF_PERICENTER><MEAN_ANOMALY>69.5775</MEAN_ANOMALY></meanElements><tleParameters><EPHEMERIS_TYPE>0</EPHEMERIS_TYPE><CLASSIFICATION_TYPE>U</CLASSIFICATION_TYPE><NORAD_CAT_ID>64500</NORAD_CAT_ID><ELEMENT_SET_NO>999</ELEMENT_SET_NO><REV_AT_EPOCH>838</REV_AT_EPOCH><BSTAR>.8539E-3</BSTAR><MEAN_MOTION_DOT>.29597E-3</MEAN_MOTION_DOT><MEAN_MOTION_DDOT>0</MEAN_MOTION_DDOT></tleParameters></data></segment></body></omm>
<omm id="CCSDS_OMM_VERS" version="2.0">
<header><CREATION_DATE/><ORIGINATOR/></header><body><segment><metadata><OBJECT_NAME>KUIPER-00040</OBJECT_NAME><OBJECT_ID>2025-134B</OBJECT_ID><CENTER_NAME>EARTH</CENTER_NAME><REF_FRAME>TEME</REF_FRAME><TIME_SYSTEM>UTC</TIME_SYSTEM><MEAN_ELEMENT_THEORY>SGP4</MEAN_ELEMENT_THEORY></metadata><data><meanElements><EPOCH>2025-08-12T14:00:01.999872</EPOCH><MEAN_MOTION>15.13258076</MEAN_MOTION><ECCENTRICITY>.0012898</ECCENTRICITY><INCLINATION>51.8793</INCLINATION><RA_OF_ASC_NODE>92.1540</RA_OF_ASC_NODE><ARG_OF_PERICENTER>297.2747</ARG_OF_PERICENTER><MEAN_ANOMALY>135.3447</MEAN_ANOMALY></meanElements><tleParameters><EPHEMERIS_TYPE>0</EPHEMERIS_TYPE><CLASSIFICATION_TYPE>U</CLASSIFICATION_TYPE><NORAD_CAT_ID>64501</NORAD_CAT_ID><ELEMENT_SET_NO>999</ELEMENT_SET_NO><REV_AT_EPOCH>844</REV_AT_EPOCH><BSTAR>-.56725E-1</BSTAR><MEAN_MOTION_DOT>-.946311E-2</MEAN_MOTION_DOT><MEAN_MOTION_DDOT>0</MEAN_MOTION_DDOT></tleParameters></data></segment></body></omm>
<omm id="CCSDS_OMM_VERS" version="2.0">
<header><CREATION_DATE/><ORIGINATOR/></header><body><segment><metadata><OBJECT_NAME>KUIPER-00041</OBJECT_NAME><OBJECT_ID>2025-134C</OBJECT_ID><CENTER_NAME>EARTH</CENTER_NAME><REF_FRAME>TEME</REF_FRAME><TIME_SYSTEM>UTC</TIME_SYSTEM><MEAN_ELEMENT_THEORY>SGP4</MEAN_ELEMENT_THEORY></metadata><data><meanElements><EPOCH>2025-08-12T14:00:01.999872</EPOCH><MEAN_MOTION>15.08152377</MEAN_MOTION><ECCENTRICITY>.0010411</ECCENTRICITY><INCLINATION>51.8795</INCLINATION><RA_OF_ASC_NODE>92.6120</RA_OF_ASC_NODE><ARG_OF_PERICENTER>299.1305</ARG_OF_PERICENTER><MEAN_ANOMALY>225.7666</MEAN_ANOMALY></meanElements><tleParameters><EPHEMERIS_TYPE>0</EPHEMERIS_TYPE><CLASSIFICATION_TYPE>U</CLASSIFICATION_TYPE><NORAD_CAT_ID>64502</NORAD_CAT_ID><ELEMENT_SET_NO>999</ELEMENT_SET_NO><REV_AT_EPOCH>843</REV_AT_EPOCH><BSTAR>.20912E-2</BSTAR><MEAN_MOTION_DOT>.32587E-3</MEAN_MOTION_DOT><MEAN_MOTION_DDOT>0</MEAN_MOTION_DDOT></tleParameters></data></segment></body></omm>
<omm id="CCSDS_OMM_VERS" version="2.0">
<header><CREATION_DATE/><ORIGINATOR/></header><body><segment><metadata><OBJECT_NAME>KUIPER-00042</OBJECT_NAME><OBJECT_ID>2025-134D</OBJECT_ID><CENTER_NAME>EARTH</CENTER_NAME><REF_FRAME>TEME</REF_FRAME><TIME_SYSTEM>UTC</TIME_SYSTEM><MEAN_ELEMENT_THEORY>SGP4</MEAN_ELEMENT_THEORY></metadata><data><meanElements><EPOCH>2025-08-12T10:00:01.999584</EPOCH><MEAN_MOTION>15.15544227</MEAN_MOTION><ECCENTRICITY>.0011189</ECCENTRICITY><INCLINATION>51.8778</INCLINATION><RA_OF_ASC_NODE>91.7986</RA_OF_ASC_NODE><ARG_OF_PERICENTER>301.1585</ARG_OF_PERICENTER><MEAN_ANOMALY>160.9306</MEAN_ANOMALY></meanElements><tleParameters><EPHEMERIS_TYPE>0</EPHEMERIS_TYPE><CLASSIFICATION_TYPE>U</CLASSIFICATION_TYPE><NORAD_CAT_ID>64503</NORAD_CAT_ID><ELEMENT_SET_NO>999</ELEMENT_SET_NO><REV_AT_EPOCH>843</REV_AT_EPOCH><BSTAR>.72727E-3</BSTAR><MEAN_MOTION_DOT>.13699E-3</MEAN_MOTION_DOT><MEAN_MOTION_DDOT>0</MEAN_MOTION_DDOT></tleParameters></data></segment></body></omm>
<omm id="CCSDS_OMM_VERS" version="2.0">
<header><CREATION_DATE/><ORIGINATOR/></header><body><segment><metadata><OBJECT_NAME>KUIPER-00043</OBJECT_NAME><OBJECT_ID>2025-134E</OBJECT_ID><CENTER_NAME>EARTH</CENTER_NAME><REF_FRAME>TEME</REF_FRAME><TIME_SYSTEM>UTC</TIME_SYSTEM><MEAN_ELEMENT_THEORY>SGP4</MEAN_ELEMENT_THEORY></metadata><data><meanElements><EPOCH>2025-08-12T10:00:01.999584</EPOCH><MEAN_MOTION>15.32650336</MEAN_MOTION><ECCENTRICITY>.0008495</ECCENTRICITY><INCLINATION>51.8696</INCLINATION><RA_OF_ASC_NODE>90.3613</RA_OF_ASC_NODE><ARG_OF_PERICENTER>293.4409</ARG_OF_PERICENTER><MEAN_ANOMALY>163.3310</MEAN_ANOMALY></meanElements><tleParameters><EPHEMERIS_TYPE>0</EPHEMERIS_TYPE><CLASSIFICATION_TYPE>U</CLASSIFICATION_TYPE><NORAD_CAT_ID>64504</NORAD_CAT_ID><ELEMENT_SET_NO>999</ELEMENT_SET_NO><REV_AT_EPOCH>883</REV_AT_EPOCH><BSTAR>-.15592E-1</BSTAR><MEAN_MOTION_DOT>-.470179E-2</MEAN_MOTION_DOT><MEAN_MOTION_DDOT>0</MEAN_MOTION_DDOT></tleParameters></data></segment></body></omm>

</ndm>
